{
  "type": "FeatureCollection",
  "features": [
    {
      "type": "Feature",
      "properties": {
        "norad_id": 66661,
        "name": "SNUGLITE-III",
        "group": "last-30-days",
        "lat": 65.31231836611381,
        "lon": 107.89148345954183,
        "alt_km": 591.4418865170855,
        "timestamp": "2025-12-09T09:46:46.423447+00:00",
        "meta_object_name": "SNUGLITE-III",
        "meta_object_id": "2025-274M",
        "meta_epoch": "2025-12-08T18:47:48.328800",
        "meta_mean_motion": 14.93068876,
        "meta_eccentricity": 0.00135555,
        "meta_inclination": 97.739,
        "meta_ra_of_asc_node": 270.0699,
        "meta_arg_of_pericenter": 296.9789,
        "meta_mean_anomaly": 63.0046,
        "meta_ephemeris_type": 0,
        "meta_classification_type": "U",
        "meta_norad_cat_id": 66661,
        "meta_element_set_no": 999,
        "meta_rev_at_epoch": 181,
        "meta_bstar": 0.00036148161,
        "meta_mean_motion_dot": 3.714e-05,
        "meta_mean_motion_ddot": 0,
        "tle_line1": "1 66661U 25274M   25342.78319825  .00003714  00000+0  36148-3 0  9993",
        "tle_line2": "2 66661  97.7390 270.0699 0013555 296.9789  63.0046 14.93068876  1815"
      },
      "geometry": {
        "type": "Point",
        "coordinates": [
          107.89148345954183,
          65.31231836611381
        ]
      }
    },
    {
      "type": "Feature",
      "properties": {
        "norad_id": 66662,
        "name": "2025-274N",
        "group": "last-30-days",
        "lat": 62.70141188615141,
        "lon": 105.96275402629469,
        "alt_km": 591.8525099656572,
        "timestamp": "2025-12-09T09:46:46.423458+00:00",
        "meta_object_name": "2025-274N",
        "meta_object_id": "2025-274N",
        "meta_epoch": "2025-12-09T02:49:36.319008",
        "meta_mean_motion": 14.93115706,
        "meta_eccentricity": 0.0013968,
        "meta_inclination": 97.739,
        "meta_ra_of_asc_node": 270.4003,
        "meta_arg_of_pericenter": 294.9648,
        "meta_mean_anomaly": 65.012,
        "meta_ephemeris_type": 0,
        "meta_classification_type": "U",
        "meta_norad_cat_id": 66662,
        "meta_element_set_no": 999,
        "meta_rev_at_epoch": 186,
        "meta_bstar": 0.00022902,
        "meta_mean_motion_dot": 2.335e-05,
        "meta_mean_motion_ddot": 0,
        "tle_line1": "1 66662U 25274N   25343.11778147  .00002335  00000+0  22902-3 0  9999",
        "tle_line2": "2 66662  97.7390 270.4003 0013968 294.9648  65.0120 14.93115706  1864"
      },
      "geometry": {
        "type": "Point",
        "coordinates": [
          105.96275402629469,
          62.70141188615141
        ]
      }
    },
    {
      "type": "Feature",
      "properties": {
        "norad_id": 66663,
        "name": "KSLV-II R/B",
        "group": "last-30-days",
        "lat": -50.31542632757912,
        "lon": -79.78143396934581,
        "alt_km": 550.950104958154,
        "timestamp": "2025-12-09T09:46:46.423470+00:00",
        "meta_object_name": "KSLV-II R/B",
        "meta_object_id": "2025-274P",
        "meta_epoch": "2025-12-06T19:27:04.446432",
        "meta_mean_motion": 14.97226496,
        "meta_eccentricity": 0.00484111,
        "meta_inclination": 97.7412,
        "meta_ra_of_asc_node": 268.2109,
        "meta_arg_of_pericenter": 339.2416,
        "meta_mean_anomaly": 20.6839,
        "meta_ephemeris_type": 0,
        "meta_classification_type": "U",
        "meta_norad_cat_id": 66663,
        "meta_element_set_no": 999,
        "meta_rev_at_epoch": 152,
        "meta_bstar": 0.00053388811,
        "meta_mean_motion_dot": 6.269e-05,
        "meta_mean_motion_ddot": 0,
        "tle_line1": "1 66663U 25274P   25340.81046813  .00006269  00000+0  53389-3 0  9995",
        "tle_line2": "2 66663  97.7412 268.2109 0048411 339.2416  20.6839 14.97226496  1529"
      },
      "geometry": {
        "type": "Point",
        "coordinates": [
          -79.78143396934581,
          -50.31542632757912
        ]
      }
    },
    {
      "type": "Feature",
      "properties": {
        "norad_id": 66664,
        "name": "SOYUZ-MS 28",
        "group": "last-30-days",
        "lat": 23.99884143805401,
        "lon": -41.67648734931114,
        "alt_km": 414.9375749971787,
        "timestamp": "2025-12-09T09:46:46.423481+00:00",
        "meta_object_name": "SOYUZ-MS 28",
        "meta_object_id": "2025-275A",
        "meta_epoch": "2025-12-08T20:45:25.500672",
        "meta_mean_motion": 15.49428834,
        "meta_eccentricity": 0.0003381,
        "meta_inclination": 51.6308,
        "meta_ra_of_asc_node": 161.6653,
        "meta_arg_of_pericenter": 221.9847,
        "meta_mean_anomaly": 138.0883,
        "meta_ephemeris_type": 0,
        "meta_classification_type": "U",
        "meta_norad_cat_id": 66664,
        "meta_element_set_no": 999,
        "meta_rev_at_epoch": 184,
        "meta_bstar": 0.00022804,
        "meta_mean_motion_dot": 0.00012323,
        "meta_mean_motion_ddot": 0,
        "tle_line1": "1 66664U 25275A   25342.86487848  .00012323  00000+0  22804-3 0  9997",
        "tle_line2": "2 66664  51.6308 161.6653 0003381 221.9847 138.0883 15.49428834  1841"
      },
      "geometry": {
        "type": "Point",
        "coordinates": [
          -41.67648734931114,
          23.99884143805401
        ]
      }
    },
    {
      "type": "Feature",
      "properties": {
        "norad_id": 66820,
        "name": "KOMPSAT-7",
        "group": "last-30-days",
        "lat": 17.529885556467747,
        "lon": -73.08901464514732,
        "alt_km": 577.7970123936229,
        "timestamp": "2025-12-09T09:46:46.423491+00:00",
        "meta_object_name": "KOMPSAT-7",
        "meta_object_id": "2025-279A",
        "meta_epoch": "2025-12-08T20:52:43.879584",
        "meta_mean_motion": 14.98373092,
        "meta_eccentricity": 0.0009454,
        "meta_inclination": 97.64,
        "meta_ra_of_asc_node": 288.8147,
        "meta_arg_of_pericenter": 234.6864,
        "meta_mean_anomaly": 125.3475,
        "meta_ephemeris_type": 0,
        "meta_classification_type": "U",
        "meta_norad_cat_id": 66820,
        "meta_element_set_no": 999,
        "meta_rev_at_epoch": 107,
        "meta_bstar": 0.0004038464,
        "meta_mean_motion_dot": 4.761e-05,
        "meta_mean_motion_ddot": 0,
        "tle_line1": "1 66820U 25279A   25342.86995231  .00004761  00000+0  40385-3 0  9996",
        "tle_line2": "2 66820  97.6400 288.8147 0009454 234.6864 125.3475 14.98373092  1074"
      },
      "geometry": {
        "type": "Point",
        "coordinates": [
          -73.08901464514732,
          17.529885556467747
        ]
      }
    },
    {
      "type": "Feature",
      "properties": {
        "norad_id": 66877,
        "name": "ZQ-3 R/B",
        "group": "last-30-days",
        "lat": 37.144292377894985,
        "lon": -139.19719758045207,
        "alt_km": 577.1063751544789,
        "timestamp": "2025-12-09T09:46:46.423502+00:00",
        "meta_object_name": "ZQ-3 R/B",
        "meta_object_id": "2025-282A",
        "meta_epoch": "2025-12-08T14:53:29.353632",
        "meta_mean_motion": 14.48659951,
        "meta_eccentricity": 0.08242315,
        "meta_inclination": 56.9533,
        "meta_ra_of_asc_node": 73.3202,
        "meta_arg_of_pericenter": 212.8744,
        "meta_mean_anomaly": 141.8352,
        "meta_ephemeris_type": 0,
        "meta_classification_type": "U",
        "meta_norad_cat_id": 66877,
        "meta_element_set_no": 999,
        "meta_rev_at_epoch": 79,
        "meta_bstar": 0.00024383409,
        "meta_mean_motion_dot": 0.01149741,
        "meta_mean_motion_ddot": 7.310405e-06,
        "tle_line1": "1 66877U 25282A   25342.62047863  .01149741  73104-5  24383-3 0  9995",
        "tle_line2": "2 66877  56.9533  73.3202 0824231 212.8744 141.8352 14.48659951   794"
      },
      "geometry": {
        "type": "Point",
        "coordinates": [
          -139.19719758045207,
          37.144292377894985
        ]
      }
    },
    {
      "type": "Feature",
      "properties": {
        "norad_id": 66906,
        "name": "1998-067XS",
        "group": "last-30-days",
        "lat": 10.14888356463778,
        "lon": -29.213428439506814,
        "alt_km": 412.6077203477562,
        "timestamp": "2025-12-09T09:46:46.423512+00:00",
        "meta_object_name": "1998-067XS",
        "meta_object_id": "1998-067XS",
        "meta_epoch": "2025-12-08T22:13:59.028960",
        "meta_mean_motion": 15.50272351,
        "meta_eccentricity": 0.0004021,
        "meta_inclination": 51.6297,
        "meta_ra_of_asc_node": 161.3264,
        "meta_arg_of_pericenter": 185.5281,
        "meta_mean_anomaly": 174.5664,
        "meta_ephemeris_type": 0,
        "meta_classification_type": "U",
        "meta_norad_cat_id": 66906,
        "meta_element_set_no": 999,
        "meta_rev_at_epoch": 102,
        "meta_bstar": 0.000538,
        "meta_mean_motion_dot": 0.0003067,
        "meta_mean_motion_ddot": 0,
        "tle_line1": "1 66906U 98067XS  25342.92637765  .00030670  00000+0  53800-3 0  9992",
        "tle_line2": "2 66906  51.6297 161.3264 0004021 185.5281 174.5664 15.50272351  1026"
      },
      "geometry": {
        "type": "Point",
        "coordinates": [
          -29.213428439506814,
          10.14888356463778
        ]
      }
    }
  ]
}